{"type": "FeatureCollection", "features": [{"type": "Feature", "geometry": {"type": "MultiPolygon", "coordinates": [[[[4.2804114216290445, 45.51971788181171], [4.278708737508724, 45.52021369048592], [4.270630457624846, 45.52246857788119], [4.263466833313515, 45.52001874489151], [4.257125132796186, 45.518536398677], [4.254265863037597, 45.518028917142665], [4.2504801953081905, 45.51802159841073], [4.249260492140186, 45.5177875119371], [4.248747918950187, 45.5190333132016], [4.248540422443662, 45.52040180263773], [4.2485553349155865, 45.52243154871146], [4.248920084146292, 45.52531836292301], [4.249095883806926, 45.5262413064575], [4.2455456055425955, 45.536347441287944], [4.2456123210202215, 45.54228785059317], [4.248254220822309, 45.54806369989081], [4.249921935166012, 45.54846933787573], [4.250660634998728, 45.54877182088251], [4.252433397354584, 45.54974092016033], [4.253550529558889, 45.55062274605663], [4.255911140534271, 45.55196077776978], [4.2573513178628986, 45.55255617230822], [4.259277263313045, 45.55309117084342], [4.264486112282582, 45.553850417756415], [4.266251658241743, 45.553811626529026], [4.267694201285781, 45.55366207669017], [4.26985124446421, 45.553086563736386], [4.272272416737003, 45.55273947056274], [4.272643810787677, 45.55272445832254], [4.273162743836768, 45.55293832450054], [4.273711213705643, 45.55209366037481], [4.278868144723701, 45.548427327535755], [4.283680730656631, 45.54658117843917], [4.284895648474959, 45.54679604312707], [4.290203538669332, 45.54664246334092], [4.292509139556266, 45.546523206102336], [4.294737069621812, 45.54620666591342], [4.299605449137666, 45.54513099316188], [4.304784820150055, 45.54388038358439], [4.310487496107172, 45.54233073694063], [4.311294494446605, 45.54220424433316], [4.311060849277664, 45.543489419409504], [4.3091279960741655, 45.5491875109867], [4.308267045032614, 45.55306379723228], [4.309456029653656, 45.55901190164449], [4.3143777830317935, 45.55988206860235], [4.319811230078105, 45.56064424687003], [4.321140361577899, 45.56079073973136], [4.320705549339923, 45.5608363767487], [4.311824686618934, 45.566470952452434], [4.303803554782084, 45.57242446023827], [4.298245971273815, 45.57423143144522], [4.290186601223607, 45.576116394279666], [4.279000443763241, 45.578349793000704], [4.278043771968964, 45.578518275526164], [4.271222043123123, 45.580180654024765], [4.271188537249989, 45.58028550154161], [4.270011262250374, 45.58398312815098], [4.270506333230363, 45.58398293901534], [4.272132393404208, 45.58369257546926], [4.273256768829377, 45.58456693337246], [4.277768588245086, 45.58755706017662], [4.282438092272034, 45.589912095873935], [4.286180381864596, 45.593641954147486], [4.2871008095793774, 45.600575925798964], [4.287298451842224, 45.60245681276553], [4.286647974113232, 45.606823146616335], [4.284912653576976, 45.615266271162035], [4.282036910397099, 45.61909959933405], [4.282749512490551, 45.61988940724878], [4.283060763555133, 45.61941934861904], [4.283513842873518, 45.61914400165277], [4.285072618686456, 45.618566937630256], [4.286287307887049, 45.61837203728827], [4.289110361849764, 45.617969581769714], [4.290188256137906, 45.61790859434036], [4.292979091899317, 45.61777749113963], [4.294771686389504, 45.61804056561339], [4.297932216098676, 45.61917313034752], [4.307289311122716, 45.62362545341851], [4.320455423391069, 45.62480551742782], [4.3218548719874645, 45.62492958119785], [4.322345169573953, 45.624875187860795], [4.32285322366957, 45.62470440546494], [4.325674419943065, 45.62363100372967], [4.327715883935581, 45.622481175721546], [4.329366698428757, 45.62190330821449], [4.331096362050422, 45.62161718071947], [4.33298216354423, 45.621686718047975], [4.333233122040237, 45.621768401874384], [4.336309553090415, 45.62219211844073], [4.340033506005855, 45.623224058548715], [4.3454397144183, 45.62026768721619], [4.348790739201602, 45.61821019928721], [4.354892472476137, 45.60857329662594], [4.354697770725999, 45.6084297425577], [4.35425136417092, 45.608750331262065], [4.352177445379698, 45.60884282478466], [4.351252706695973, 45.60870263389262], [4.3507891638884555, 45.608531681394076], [4.347055451964755, 45.60490196798386], [4.346517004072218, 45.60423385883455], [4.346127963821835, 45.603377533409805], [4.345996201110836, 45.602020091978936], [4.3411977607998935, 45.596401783493704], [4.335599519042619, 45.59124849314491], [4.3341208061490955, 45.59067524824384], [4.33448681972737, 45.58984054757362], [4.336101490204676, 45.589828579846724], [4.336356204947076, 45.589752604210034], [4.336569210501663, 45.58964920495563], [4.339818294176484, 45.587311294389345], [4.341055598407244, 45.58623112842636], [4.34268717466482, 45.58453833200786], [4.3489162699819435, 45.57761015897811], [4.350783633913918, 45.57550913837045], [4.350845473859756, 45.57531026184458], [4.349101656182391, 45.57431891934762], [4.348201775816106, 45.57275095179694], [4.350048034578076, 45.5694199679333], [4.3511539503439405, 45.56807648541402], [4.351581123223183, 45.56766337545792], [4.353069840884129, 45.56640443009194], [4.355089551326507, 45.56452575117599], [4.355274259425661, 45.564319086563486], [4.355659674939126, 45.564088386587144], [4.357503290454688, 45.56376983648651], [4.358845900077908, 45.56341228340549], [4.359687494618667, 45.5628059039781], [4.359986698881379, 45.562459152748424], [4.360681295727581, 45.56129706815188], [4.362062173370611, 45.55994294051877], [4.363424688615806, 45.55862684358912], [4.36488282137706, 45.55770853766717], [4.374164398825296, 45.55491072040077], [4.374948536013377, 45.55484259012084], [4.3816358261001165, 45.55620965946211], [4.394222313285551, 45.55881550308934], [4.4036087649650035, 45.558184420469274], [4.40384852884865, 45.5580841593862], [4.403934899279202, 45.558305532596904], [4.403303898162028, 45.56245084204362], [4.403155399225179, 45.56342265943106], [4.402959996355169, 45.56421313764474], [4.402760885584469, 45.56460378822227], [4.401770640886699, 45.56565275079979], [4.401827595289017, 45.56607983315867], [4.406417238743196, 45.56650973552758], [4.415951164923905, 45.56633510667402], [4.419118264406794, 45.565785416421456], [4.421876085149333, 45.56582801847874], [4.421907864923758, 45.565767274925356], [4.42266327224163, 45.564275295729246], [4.424248430648755, 45.56249360792249], [4.431319461221958, 45.558672510563426], [4.4398504994474015, 45.555969748146055], [4.4428273455837575, 45.55479048032445], [4.443382901388662, 45.554315922886445], [4.443582941868925, 45.5537270476211], [4.443793778327889, 45.554784373006584], [4.443944754429923, 45.5550192973121], [4.449041008231839, 45.56180926087525], [4.453058102098004, 45.5669071822267], [4.4544116831980505, 45.566889676699866], [4.455077131362228, 45.56703507189], [4.459380741071362, 45.568756220044975], [4.460147766295667, 45.569154244156934], [4.464846988600915, 45.575547919779865], [4.465660428745663, 45.576483880462625], [4.465483284122582, 45.57667171953475], [4.464673369392496, 45.57751985993396], [4.46387549182673, 45.577659041633346], [4.467561527232787, 45.58570856270881], [4.467705022835814, 45.585750820752416], [4.468578609890939, 45.58580245896114], [4.4845990516886545, 45.58617749648305], [4.501273320558735, 45.58553461300585], [4.504871074027556, 45.58363840841122], [4.5060169255070335, 45.579358538820166], [4.505313399461836, 45.57711276024181], [4.504764038595952, 45.576576128623955], [4.506656003928855, 45.57611578098169], [4.513193213913992, 45.57500575580066], [4.518243182503933, 45.57429281105317], [4.531644120122023, 45.57720204451671], [4.546106415528337, 45.580773298792955], [4.547661222163777, 45.579957535407075], [4.552934160868281, 45.5785032314341], [4.553096126363309, 45.578516305196494], [4.553995485319421, 45.578710126627726], [4.560148448031063, 45.58023617710257], [4.566930041537878, 45.58347968882426], [4.567577887166033, 45.58371023245391], [4.568242314820473, 45.58361990850387], [4.568838743743576, 45.583483695406024], [4.570351392364626, 45.582501581729446], [4.5779489849096, 45.577564097327866], [4.582900443086002, 45.57440704347822], [4.586339147514656, 45.57141973063193], [4.5867702809131945, 45.57080119939963], [4.58718655268288, 45.57064941634624], [4.587786036606322, 45.57058150709718], [4.589075061538321, 45.57072451024513], [4.601969605933812, 45.570558604047136], [4.602735624662039, 45.57052967178393], [4.603078220072292, 45.571024653065344], [4.607207717615674, 45.5729354341886], [4.609865964128245, 45.57403223229254], [4.613508436702093, 45.574704145137666], [4.615753709534921, 45.574825010229866], [4.618125075055409, 45.57416854398319], [4.623789214825395, 45.57021131082139], [4.62511839776097, 45.56887713145638], [4.626252151705561, 45.56739625279316], [4.6321266838457085, 45.55782168859146], [4.633606044195827, 45.55507387899259], [4.642978816276113, 45.543125889169794], [4.64316208504035, 45.542952082392645], [4.64341950232782, 45.54272855474877], [4.643281416895923, 45.54217756505325], [4.643305506538198, 45.54164942202812], [4.644779210485496, 45.54055966651827], [4.645670559692612, 45.54070873398577], [4.647016607041082, 45.54076106296593], [4.651388610268241, 45.54093826536131], [4.657269983605618, 45.542042350032105], [4.658053658486031, 45.542274869330555], [4.659069735718416, 45.542906551494745], [4.659364962734072, 45.543392156537884], [4.659203507886378, 45.543607999864726], [4.654628181123776, 45.54981533870894], [4.648866929825445, 45.55924717154772], [4.648943467068836, 45.5598377887437], [4.649360580108343, 45.56325781759912], [4.64910132109932, 45.5651034927489], [4.6503387716103335, 45.564545828624084], [4.652865171946148, 45.56352607301787], [4.65501738828468, 45.56316115415809], [4.6574496676741814, 45.563844949970246], [4.657932498804069, 45.56391168407839], [4.658329373936701, 45.563848186175285], [4.658839311244167, 45.56434954139265], [4.661105320900777, 45.566071487825795], [4.6677019534590425, 45.569416187748615], [4.672931483220914, 45.570013086951114], [4.6794880067471665, 45.56818331407132], [4.68032400956981, 45.56788440427827], [4.682990429993912, 45.56595578924579], [4.68338512114472, 45.56565175412215], [4.6873571372542004, 45.55868218387699], [4.687476507937585, 45.55826517854621], [4.686417183165568, 45.5578757739529], [4.686108171884609, 45.557621915701944], [4.686359200812053, 45.557065132510516], [4.686357441008623, 45.5562482434247], [4.68543754227858, 45.55504522699614], [4.685184078728114, 45.55467794871448], [4.684921035125992, 45.554459425438026], [4.6787323480959335, 45.550888993409885], [4.6670303308097125, 45.543449814326735], [4.666447244148102, 45.54315493749451], [4.665189231226531, 45.542963732603965], [4.664861657419065, 45.542768637847715], [4.665479433321948, 45.54242623333423], [4.665899227282096, 45.5420642442393], [4.66612101142459, 45.54180966802038], [4.66633576588083, 45.54153448014122], [4.666280671569864, 45.5411083786594], [4.6622863817401194, 45.53694249950098], [4.661173674676716, 45.53582051082394], [4.656928840853503, 45.53358108812497], [4.6563599484742175, 45.53341294657227], [4.654770572726434, 45.53331748192039], [4.650453459253651, 45.52755547715373], [4.648570007391782, 45.5213937589479], [4.650611636606454, 45.51090254137694], [4.654245859575505, 45.49972674670152], [4.653046229585691, 45.498020545262605], [4.649947284958271, 45.49691238319303], [4.650933379044398, 45.49544691738363], [4.651054082405927, 45.49403650493545], [4.657049110907292, 45.48924580290505], [4.663555897739102, 45.48541630013702], [4.66384793207787, 45.48537684543525], [4.663988131500497, 45.4852270579291], [4.673115525594565, 45.47738346226375], [4.6759270449454, 45.480611833511674], [4.679994401417056, 45.48060506197335], [4.681713712913377, 45.479796630740246], [4.68132849051889, 45.47781372635046], [4.681399905285905, 45.470192104500654], [4.681646453378085, 45.46814569603808], [4.679151980357079, 45.46663120518644], [4.678274139863546, 45.46460523083291], [4.67700381429745, 45.45801244129723], [4.672069568480785, 45.45475904201789], [4.671842419763083, 45.4546102154717], [4.671394351296271, 45.45417917012286], [4.663225314767455, 45.44928210642007], [4.660823433823403, 45.4487223598629], [4.6561740890345265, 45.44848578217982], [4.640110801967222, 45.450102516398516], [4.639259049412065, 45.45024826419144], [4.63756664448188, 45.45052606832275], [4.634659903969946, 45.447499038538034], [4.63263846425346, 45.445198491692594], [4.632346433783558, 45.445231563102695], [4.632208976606389, 45.44416719104199], [4.63239716037405, 45.44334305732091], [4.632744251839763, 45.44270214440578], [4.6330289679315815, 45.44242059822727], [4.633522955934582, 45.44138035609596], [4.634171779123559, 45.43973261729546], [4.634244086341557, 45.43888495057331], [4.6335527069047036, 45.43682082225361], [4.631400198397288, 45.43169593040645], [4.631168973473413, 45.431183221534454], [4.630596937388057, 45.43104383479799], [4.62369382850148, 45.429396748062814], [4.6201241940231315, 45.42861978630609], [4.619859104457845, 45.42838944797192], [4.617733397015668, 45.42558129910334], [4.617435795146152, 45.42511185267306], [4.61727137818506, 45.42473595299612], [4.61693870566513, 45.423632055841345], [4.6155941429618395, 45.41794224838991], [4.614556084082522, 45.412449763700515], [4.6143724660333785, 45.40682969126116], [4.6141289180372596, 45.40306400911568], [4.613848641696587, 45.40120371588206], [4.6120503378311115, 45.39266359990225], [4.607949453836119, 45.390932050043276], [4.596836443884376, 45.38758839604559], [4.587232667831621, 45.38477347766283], [4.586234399512332, 45.38454624564995], [4.585919020022653, 45.384332757063284], [4.5836056467816455, 45.383701712910465], [4.583336722883321, 45.38368299790266], [4.583171971513835, 45.383687127343784], [4.576074436813361, 45.38421049215207], [4.575902612498704, 45.385453978593134], [4.574122304732885, 45.38514036801291], [4.573117636530767, 45.385227429711854], [4.571885909645257, 45.385149250288706], [4.570536293478506, 45.38506010114092], [4.569868760857375, 45.384910945517696], [4.5694801304912795, 45.38472635736513], [4.568498003180297, 45.3839808804766], [4.56747775121438, 45.38251632645074], [4.567206281657069, 45.381544743468126], [4.567189476033832, 45.38067587211076], [4.566520914619862, 45.37821840226791], [4.562739598463953, 45.373988734248975], [4.562163992555664, 45.373467194677154], [4.560833550840123, 45.372684183750565], [4.559463875449989, 45.37214127020234], [4.5556219152970785, 45.371147265528435], [4.552508629893911, 45.371535397945365], [4.549313135102283, 45.372184860423566], [4.548866560223257, 45.3721622162914], [4.547776880550412, 45.37290678274381], [4.539712144294197, 45.38101364473066], [4.531303982083547, 45.38234742501605], [4.525294134804939, 45.383488534522435], [4.518892472591137, 45.385641522155474], [4.516780099377775, 45.387433548428895], [4.515589185831975, 45.38842953593486], [4.4994625419949426, 45.39249393365866], [4.4956656403732485, 45.392568092664334], [4.495458481342604, 45.39242225614789], [4.482876443742561, 45.38933555490181], [4.483816705822104, 45.38845581894315], [4.488528483444526, 45.38436938994659], [4.488878449499771, 45.38407474294908], [4.487501688477545, 45.38320232546752], [4.477680459532143, 45.38114380868647], [4.469406008568656, 45.37820498557432], [4.468510865232636, 45.37590576749335], [4.4662672139255175, 45.37155010994781], [4.466108137679914, 45.37147744191739], [4.465706960751277, 45.37167271958902], [4.465171145608626, 45.3723353695897], [4.46464372217177, 45.37263766532037], [4.463816866541945, 45.37336085171765], [4.462628357301922, 45.37427788137997], [4.462170802001674, 45.374517111172075], [4.461219882441961, 45.37543282524314], [4.456004828981399, 45.37952552591072], [4.450495918565304, 45.38227808130518], [4.446931170379022, 45.39449673055127], [4.44328585562504, 45.40096144299935], [4.438323008609384, 45.40694040998314], [4.436994804102119, 45.40759147117497], [4.433493542360267, 45.40786685793217], [4.428897717265543, 45.40789041586447], [4.427514723341414, 45.40755770339448], [4.42656400662468, 45.40737887975666], [4.425719262157454, 45.40734369712352], [4.425438696226473, 45.407371581724576], [4.424974009644797, 45.407399104695074], [4.424163232254742, 45.40729233100742], [4.4204025087640755, 45.40672133831765], [4.418793629680835, 45.406451721829285], [4.417788609533637, 45.40589616040834], [4.416970469057146, 45.40539856806595], [4.418629924121223, 45.402139020261764], [4.414413747040241, 45.39932660335502], [4.407540209066178, 45.396202513723544], [4.401158041110686, 45.39707771711545], [4.39800594375237, 45.39973060877036], [4.39754456508899, 45.39998943024954], [4.3968709593315145, 45.400196859462], [4.395495518203358, 45.40020048537495], [4.394697053511795, 45.39930352621808], [4.393777753643404, 45.397715507997674], [4.392596723389805, 45.39649547633022], [4.391302234669965, 45.39543894850519], [4.3907294405038515, 45.39482014638484], [4.39038710744555, 45.39431826121271], [4.382300922159057, 45.388863453917125], [4.381418066158083, 45.38815567080997], [4.380323730684956, 45.388865312940865], [4.377261571608162, 45.390163817756665], [4.374314130960713, 45.39067911932113], [4.373353708005154, 45.390657572633174], [4.373320496717336, 45.39050307841584], [4.3685476126059894, 45.38882874159161], [4.363057047483702, 45.387949150012126], [4.3585906071691625, 45.38257736943324], [4.355655035144339, 45.376908631340115], [4.355077910130219, 45.37299177464893], [4.349221843573391, 45.37098121763542], [4.33679569215852, 45.36680652302794], [4.336191811665241, 45.36655796449033], [4.335817594901441, 45.36736124055833], [4.335305348248095, 45.36795002223993], [4.330968308956948, 45.369038205361385], [4.330049828120611, 45.369258049111224], [4.329663830192148, 45.369251824876585], [4.320238365183115, 45.3695632416796], [4.309942773493273, 45.37074499130738], [4.3080554317342425, 45.37144247616739], [4.308212194815717, 45.371045293886006], [4.30921910604484, 45.3635002389518], [4.308001522442645, 45.362353627838075], [4.306418346031887, 45.36163003508936], [4.30280585320837, 45.360764339961925], [4.284995133998706, 45.35769384417867], [4.27166347402506, 45.35971649144977], [4.271260115458617, 45.35989758135575], [4.2710536364432965, 45.359973771195705], [4.270093233984694, 45.36222256960813], [4.269765511778846, 45.36303229092228], [4.269752919443474, 45.363432284440634], [4.269890294593361, 45.36475005458426], [4.27038646683934, 45.36656266926109], [4.270723179888249, 45.36872020732112], [4.27097723013647, 45.37206833143258], [4.271040502576445, 45.37344007682443], [4.271087551343999, 45.37460487625702], [4.270194432259687, 45.37522198836886], [4.268956196266208, 45.3748262633865], [4.268308642972194, 45.37461385844339], [4.251780317105, 45.3753247952228], [4.24451836440899, 45.384161875755716], [4.244419369588662, 45.38459254401759], [4.24453079930506, 45.385174871511055], [4.243512585685614, 45.385476157875836], [4.24166931839516, 45.38511476082143], [4.23938085588353, 45.38501852167776], [4.237595402536951, 45.38576050793958], [4.2271236038444, 45.38970666783229], [4.226570305574448, 45.39017561401123], [4.226345511862156, 45.389892596540584], [4.218922091260552, 45.385680626310496], [4.202917176844639, 45.38311050006079], [4.199127419338026, 45.38355277127499], [4.194869037103768, 45.38449161502729], [4.1917659584001505, 45.38555669878472], [4.19015823109482, 45.38663103790022], [4.189411557868105, 45.38727385696364], [4.177586104814622, 45.39222932209802], [4.163621787479155, 45.38975099075303], [4.163249174350352, 45.38965669947747], [4.162403076046924, 45.38922781232246], [4.158286882980627, 45.38802137425601], [4.155053019914298, 45.38689214787312], [4.152540875838292, 45.38586347413091], [4.150675441689648, 45.38495688388384], [4.149616238103563, 45.38459673104168], [4.148835285338942, 45.38446695735201], [4.1439113482336305, 45.38421835404604], [4.145521798692124, 45.38367147913636], [4.147197497002144, 45.382571877844185], [4.157817996242534, 45.37359674238234], [4.1581585155141125, 45.37270708448385], [4.155744361728572, 45.36714052837334], [4.155017343487609, 45.36596651214709], [4.1541175801180215, 45.36459254982374], [4.1465907523364445, 45.365530773033406], [4.132043415946088, 45.36733754104011], [4.11934958947276, 45.369112197540986], [4.116242467695993, 45.36821924997604], [4.110243157701599, 45.363743765162], [4.1087533157939164, 45.359238728714054], [4.109215173206627, 45.35760868714111], [4.1091661092318015, 45.35649250815795], [4.1084883529684895, 45.355170027620396], [4.107952057201858, 45.35472866901257], [4.107740635543338, 45.355144106389], [4.1064547153599005, 45.35605825486844], [4.104985170111604, 45.35705434788766], [4.100731440672916, 45.359042293237415], [4.098898475378043, 45.359561891105564], [4.098608907632338, 45.36009964969454], [4.095730383862672, 45.36513122074728], [4.093844621142697, 45.367527065464465], [4.091986096402296, 45.36897524905896], [4.0891550691407925, 45.36982860201071], [4.084034303993647, 45.37080492414871], [4.081074108433376, 45.38317265968754], [4.080025681502666, 45.38340790454264], [4.078293113057524, 45.383620007904504], [4.065845234842953, 45.390838921122345], [4.0564456074328525, 45.397467605081275], [4.055021968521876, 45.39707937769345], [4.054295356690405, 45.39779043284732], [4.04873314562082, 45.40602936964656], [4.0485232335975825, 45.40689764727617], [4.049007698747212, 45.40784317825008], [4.050952488730918, 45.41272747446189], [4.051178735113842, 45.41407705708114], [4.051141301891563, 45.41473479912233], [4.050798094953289, 45.417142447276255], [4.049475964263443, 45.41985373780942], [4.047535390552475, 45.42232674697316], [4.0456740491448295, 45.423513917828274], [4.043812761915754, 45.426411174870374], [4.042591251045758, 45.430289442063426], [4.042920476157289, 45.43093116494739], [4.044367370943969, 45.43108609972214], [4.046692465007647, 45.43080776887477], [4.049929951639676, 45.43028490998356], [4.050889850211058, 45.429846362048444], [4.050605559416101, 45.429421270468396], [4.050756863373896, 45.42930638506164], [4.052134539615611, 45.42884590005659], [4.0533104317596695, 45.42860432317895], [4.052308078018162, 45.42794643547844], [4.059053382275535, 45.42319202752385], [4.067052895052447, 45.418419873277564], [4.067878999110445, 45.418422814277946], [4.068160692935489, 45.41744394679092], [4.06953673907417, 45.41206812096059], [4.070351843062755, 45.40997649604469], [4.071260415213716, 45.40802805814646], [4.072308265274277, 45.40753805243093], [4.075473132191836, 45.407374452280536], [4.076509665566509, 45.40735909926484], [4.076957403690401, 45.40743944905175], [4.093199776155164, 45.411316645834134], [4.096469500819874, 45.414647337693296], [4.097210997461387, 45.41956695492301], [4.094320730022419, 45.42195552657839], [4.096222736469912, 45.42684221022118], [4.100225984431111, 45.43008639016476], [4.101370184049455, 45.43064250197705], [4.101315081567673, 45.4294750354324], [4.1008821266061135, 45.42692263851696], [4.1016647011663805, 45.42569021118911], [4.102367817694157, 45.42593455301983], [4.111501498542044, 45.42854872834911], [4.120935016493264, 45.4292437052358], [4.125237851751851, 45.4288196782728], [4.126060121552395, 45.4285619718673], [4.1294545606824675, 45.42686631889861], [4.146220416593563, 45.41956922060622], [4.153838426128844, 45.417126228012776], [4.154665992650441, 45.41412066951616], [4.154562479252065, 45.413199570332154], [4.154909467366441, 45.41408484107463], [4.1604099426053995, 45.41934490780358], [4.167834132947717, 45.42414252718866], [4.1791472683565365, 45.43314047635374], [4.197705940794238, 45.43910184807084], [4.1978787927995445, 45.439227881978326], [4.198894928542798, 45.438595635954975], [4.199957622025445, 45.439113802181694], [4.202112413362005, 45.440028213918744], [4.20626168038158, 45.441121077657876], [4.207919499022398, 45.44141032828238], [4.213039250463654, 45.44053555840105], [4.2169414375492655, 45.43775196271416], [4.217626982735287, 45.43441873180237], [4.224934291416977, 45.42395742547072], [4.224933749100744, 45.42346842429959], [4.225888050026312, 45.42290054445724], [4.226459340450301, 45.42288439056087], [4.229079040258286, 45.42325915769196], [4.231830980494846, 45.42440599815951], [4.238099635210527, 45.42737186870422], [4.2403121472992265, 45.429030580539546], [4.241683933971524, 45.43083725071758], [4.24280632016795, 45.430752771494966], [4.244843362967645, 45.43044649710149], [4.247053133621983, 45.42974471547074], [4.247367362119637, 45.43075256112986], [4.250863407443809, 45.43844592652843], [4.2518713495904175, 45.44770067577929], [4.255392631364601, 45.458361953207934], [4.2564816465599895, 45.45909814080091], [4.257050922659648, 45.45965552454405], [4.257535783253534, 45.46038406068015], [4.257647298620131, 45.46095737843334], [4.257384719855883, 45.461851892058455], [4.256714618594518, 45.46277888817087], [4.256294002351548, 45.46313752503282], [4.255620131803881, 45.46361606956354], [4.254718899249211, 45.46377474636004], [4.254820017266158, 45.464455351798314], [4.2551419676194495, 45.465223544862376], [4.255272135907781, 45.46532025155971], [4.256477808425426, 45.46577595750786], [4.258833990470832, 45.46588823753682], [4.2784045989810355, 45.465793953165296], [4.2923953679250815, 45.46433774059121], [4.293813414905015, 45.46367838159271], [4.294899802452531, 45.46334163904963], [4.295231283920243, 45.463177509113656], [4.295740820854563, 45.463185134721314], [4.297786390294456, 45.46347849874457], [4.300003394353719, 45.46404181613837], [4.301621764451206, 45.46456250415218], [4.303722337147085, 45.477340849898724], [4.304323620397017, 45.47896032391398], [4.30361149053662, 45.483199557401925], [4.302661858084771, 45.48965428909953], [4.301676966225632, 45.49204686930578], [4.299855616096715, 45.494431116973395], [4.298223977281918, 45.49644660103534], [4.290404080750004, 45.50594609149381], [4.2824915120280584, 45.50922121802255], [4.281523677074723, 45.5115728923736], [4.28043516636794, 45.51880351471312], [4.2804114216290445, 45.51971788181171]]]]}, "properties": {"nom": "Saint-Etienne Métropole", "code_siren": "244200770", "type_epci": "Métropole", "population": 406257, "superficie_km2": 723.5, "nombre_communes": 53}}]}